{"fetched_at":"2026-03-29T16:36:15Z","count":15609,"tles":[{"name":"STARLINK-32722","line1":"1 62450U 24251U   26087.71654162  .00023094  00000+0  78933-3 0  9996","line2":"2 62450  53.1581 246.7681 0000865  84.5677 275.5422 15.30204416 70495","category":"Starlink"}]}